NAVSTAR 77 (USA 289)    
1 43873U 18109A   24202.99439300 -.00000001  00000+0  00000+0 0  9991
2 43873  55.3085 119.6929 0029555 194.1037 165.0342  2.00557432 41061
